NORAD_CAT_ID,OBJECT_NAME,OBJECT_TYPE,EPOCH,MEAN_MOTION,ECCENTRICITY,INCLINATION,RA_OF_ASC_NODE,ARG_OF_PERICENTER,MEAN_ANOMALY,BSTAR,MEAN_MOTION_DOT,MEAN_MOTION_DDOT,TLE_LINE0,TLE_LINE1,TLE_LINE2,SEMIMAJOR_AXIS,PERIOD,APOGEE,PERIGEE,DECAYED
53392.0,STARLINK-4535,PAYLOAD,2023-05-13 00:22:54,15.08852601,8.81e-05,53.2169,75.4793,101.5336,258.5755,1.1692e-05,-1.02e-06,0.0,0 STARLINK-4535,1 53392U 22097E   23133.01590611 -.00000102  00000-0  11692-4 0  9994,2 53392  53.2169  75.4793 0000881 101.5336 258.5755 15.08852601 42279,6917.842,95.437,540.316,539.097,0.0
53392.0,STARLINK-4535,PAYLOAD,2023-05-13 03:33:40,15.08835246,9.99e-05,53.217,74.8852,94.0985,266.0121,0.00041083,6.256e-05,0.0,0 STARLINK-4535,1 53392U 22097E   23133.14838665  .00006256  00000-0  41083-3 0  9993,2 53392  53.2170  74.8852 0000999  94.0985 266.0121 15.08835246 42295,6917.895,95.438,540.451,539.069,0.0
53392.0,STARLINK-4535,PAYLOAD,2023-05-14 03:24:28,15.08836045,0.0001141,53.2178,70.4239,73.5552,286.5565,8.4484e-05,1.057e-05,0.0,0 STARLINK-4535,1 53392U 22097E   23134.14200010  .00001057  00000-0  84484-4 0  9998,2 53392  53.2178  70.4239 0001141  73.5552 286.5565 15.08836045 42440,6917.892,95.438,540.547,538.968,0.0
53392.0,STARLINK-4535,PAYLOAD,2023-05-14 19:18:19,15.08841957,0.0001095,53.2158,67.4495,98.3201,261.7915,-8.3784e-05,-1.621e-05,0.0,0 STARLINK-4535,1 53392U 22097E   23134.80439542 -.00001621  00000-0 -83784-4 0  9996,2 53392  53.2158  67.4495 0001095  98.3201 261.7915 15.08841957 43197,6917.874,95.437,540.497,538.982,0.0
53392.0,STARLINK-4535,PAYLOAD,2023-05-15 01:39:52,15.08848447,0.0001062,53.2171,66.2636,86.9267,273.1847,1.9482e-05,2.2e-07,0.0,0 STARLINK-4535,1 53392U 22097E   23135.06935336  .00000022  00000-0  19482-4 0  9993,2 53392  53.2171  66.2636 0001062  86.9267 273.1847 15.08848447 42589,6917.855,95.437,540.454,538.985,0.0
53392.0,STARLINK-4535,PAYLOAD,2023-05-15 12:47:34,15.08843113,0.0001222,53.2169,64.1823,83.9316,276.1815,0.00023306,3.424e-05,0.0,0 STARLINK-4535,1 53392U 22097E   23135.53303547  .00003424  00000-0  23306-3 0  9996,2 53392  53.2169  64.1823 0001222  83.9316 276.1815 15.08843113 43305,6917.871,95.437,540.581,538.891,0.0
53392.0,STARLINK-4535,PAYLOAD,2023-05-16 01:30:39,15.08840825,0.0001404,53.2175,61.8032,87.8676,272.2476,0.00012517,1.705e-05,0.0,0 STARLINK-4535,1 53392U 22097E   23136.06295731  .00001705  00000-0  12517-3 0  9992,2 53392  53.2175  61.8032 0001404  87.8676 272.2476 15.08840825 42735,6917.878,95.438,540.714,538.772,0.0
53392.0,STARLINK-4535,PAYLOAD,2023-05-16 22:10:40,15.08844501,0.0001429,53.2183,57.9369,92.3174,267.7981,5.142e-05,5.31e-06,0.0,0 STARLINK-4535,1 53392U 22097E   23136.92407425  .00000531  00000-0  51420-4 0  9995,2 53392  53.2183  57.9369 0001429  92.3174 267.7981 15.08844501 43516,6917.867,95.437,540.72,538.743,0.0
53392.0,STARLINK-4535,PAYLOAD,2023-05-17 22:01:27,15.08847139,0.0001271,53.2175,53.4761,87.5435,272.5702,-0.00014641,-2.618e-05,0.0,0 STARLINK-4535,1 53392U 22097E   23137.91767476 -.00002618  00000-0 -14641-3 0  9993,2 53392  53.2175  53.4761 0001271  87.5435 272.5702 15.08847139 43666,6917.859,95.437,540.603,538.844,0.0
53392.0,STARLINK-4535,PAYLOAD,2023-05-18 01:12:13,15.08844091,0.0001194,53.2175,52.8791,91.371,268.7419,-4.3417e-05,-9.79e-06,0.0,0 STARLINK-4535,1 53392U 22097E   23138.05015540 -.00000979  00000-0 -43417-4 0  9999,2 53392  53.2175  52.8791 0001194  91.3710 268.7419 15.08844091 43032,6917.868,95.437,540.559,538.907,0.0
53392.0,STARLINK-4535,PAYLOAD,2023-05-18 17:06:05,15.08834994,0.0001167,53.2183,49.9092,98.3702,261.7422,1.7721e-06,-2.6e-06,0.0,0 STARLINK-4535,1 53392U 22097E   23138.71256072 -.00000260  00000-0  17721-5 0  9991,2 53392  53.2183  49.9092 0001167  98.3702 261.7422 15.08834994 43139,6917.896,95.438,540.568,538.953,0.0
53392.0,STARLINK-4535,PAYLOAD,2023-05-19 21:43:01,15.08837121,0.0001158,53.2183,44.5564,100.3415,259.7708,6.0223e-05,6.71e-06,0.0,0 STARLINK-4535,1 53392U 22097E   23139.90488106  .00000671  00000-0  60223-4 0  9997,2 53392  53.2183  44.5564 0001158 100.3415 259.7708 15.08837121 43969,6917.889,95.438,540.555,538.953,0.0
53392.0,STARLINK-4535,PAYLOAD,2023-05-20 00:53:47,15.08837614,0.0001157,53.2184,43.9618,100.1466,259.9657,6.1295e-05,6.88e-06,0.0,0 STARLINK-4535,1 53392U 22097E   23140.03736098  .00000688  00000-0  61295-4 0  9997,2 53392  53.2184  43.9618 0001157 100.1466 259.9657 15.08837614 43339,6917.888,95.438,540.553,538.952,0.0
53392.0,STARLINK-4535,PAYLOAD,2023-05-20 12:01:29,15.08845658,0.0001095,53.2182,41.8797,96.9277,263.184,0.00015625,2.2e-05,0.0,0 STARLINK-4535,1 53392U 22097E   23140.50103375  .00002200  00000-0  15625-3 0  9992,2 53392  53.2182  41.8797 0001095  96.9277 263.1840 15.08845658 43401,6917.863,95.437,540.486,538.971,0.0
53392.0,STARLINK-4535,PAYLOAD,2023-05-21 02:19:56,15.08857205,0.0001048,53.2178,39.2018,101.7072,258.4038,0.00021556,3.146e-05,0.0,0 STARLINK-4535,1 53392U 22097E   23141.09718325  .00003146  00000-0  21556-3 0  9994,2 53392  53.2178  39.2018 0001048 101.7072 258.4038 15.08857205 43495,6917.828,95.436,540.418,538.968,0.0
53392.0,STARLINK-4535,PAYLOAD,2023-05-21 22:59:59,15.08835035,0.0001289,53.2178,35.3366,103.6521,256.4615,-1.6563e-05,-5.51e-06,0.0,0 STARLINK-4535,1 53392U 22097E   23141.95832678 -.00000551  00000-0 -16563-4 0  9999,2 53392  53.2178  35.3366 0001289 103.6521 256.4615 15.08835035 44278,6917.896,95.438,540.652,538.869,0.0
53392.0,STARLINK-4535,PAYLOAD,2023-05-22 00:35:22,15.08832566,0.0001037,53.2173,35.0392,108.018,252.0925,-9.5001e-05,-1.799e-05,0.0,0 STARLINK-4535,1 53392U 22097E   23142.02456310 -.00001799  00000-0 -95001-4 0  9992,2 53392  53.2173  35.0392 0001037 108.0180 252.0925 15.08832566 43631,6917.903,95.438,540.485,539.051,0.0
53392.0,STARLINK-4535,PAYLOAD,2023-05-22 10:07:40,15.0884149,9.92e-05,53.2177,33.2567,105.985,254.1251,6.1051e-05,6.84e-06,0.0,0 STARLINK-4535,1 53392U 22097E   23142.42200042  .00000684  00000-0  61051-4 0  9993,2 53392  53.2177  33.2567 0000992 105.9850 254.1251 15.08841490 43695,6917.876,95.437,540.427,539.055,0.0
53392.0,STARLINK-4535,PAYLOAD,2023-05-22 19:39:59,15.08847946,9.59e-05,53.2173,31.4725,110.5937,249.5158,0.00032967,4.964e-05,0.0,0 STARLINK-4535,1 53392U 22097E   23142.81943834  .00004964  00000-0  32967-3 0  9997,2 53392  53.2173  31.4725 0000959 110.5937 249.5158 15.08847946 44404,6917.856,95.437,540.385,539.058,0.0
53392.0,STARLINK-4535,PAYLOAD,2023-05-23 02:01:31,15.08860232,9.04e-05,53.2167,30.2824,110.8189,249.29,0.00052534,8.087e-05,0.0,0 STARLINK-4535,1 53392U 22097E   23143.08439334  .00008087  00000-0  52534-3 0  9994,2 53392  53.2167  30.2824 0000904 110.8189 249.2900 15.08860232 43792,6917.819,95.436,540.309,539.058,0.0
53392.0,STARLINK-4535,PAYLOAD,2023-05-23 22:41:33,15.08840535,8.67e-05,53.2171,26.4177,87.3784,272.7307,0.0001966,2.843e-05,0.0,0 STARLINK-4535,1 53392U 22097E   23143.94552399  .00002843  00000-0  19660-3 0  9993,2 53392  53.2171  26.4177 0000867  87.3784 272.7307 15.08840535 44575,6917.879,95.438,540.344,539.144,0.0
53392.0,STARLINK-4535,PAYLOAD,2023-05-25 19:12:21,15.08837335,6.35e-05,53.2169,18.0917,89.7949,270.3116,0.00021982,3.212e-05,0.0,0 STARLINK-4535,1 53392U 22097E   23145.80025363  .00003212  00000-0  21982-3 0  9997,2 53392  53.2169  18.0917 0000635  89.7949 270.3116 15.08837335 44209,6917.889,95.438,540.193,539.314,0.0
53392.0,STARLINK-4535,PAYLOAD,2023-05-25 22:23:08,15.08841375,6.45e-05,53.2167,17.4976,91.1189,268.9877,0.00026347,3.908e-05,0.0,0 STARLINK-4535,1 53392U 22097E   23145.93273304  .00003908  00000-0  26347-3 0  9993,2 53392  53.2167  17.4976 0000645  91.1189 268.9877 15.08841375 44878,6917.876,95.437,540.187,539.295,0.0
53392.0,STARLINK-4535,PAYLOAD,2023-05-26 14:16:59,15.08842424,6.28e-05,53.2169,14.523,92.3826,267.7238,0.00041795,6.371e-05,0.0,0 STARLINK-4535,1 53392U 22097E   23146.59513412  .00006371  00000-0  41795-3 0  9994,2 53392  53.2169  14.5230 0000628  92.3826 267.7238 15.08842424 44978,6917.873,95.437,540.172,539.304,0.0
53392.0,STARLINK-4535,PAYLOAD,2023-05-26 20:38:31,15.08849577,6.18e-05,53.2172,13.3332,91.5926,268.5137,0.00043706,6.677e-05,0.0,0 STARLINK-4535,1 53392U 22097E   23146.86009188  .00006677  00000-0  43706-3 0  9997,2 53392  53.2172  13.3332 0000618  91.5926 268.5137 15.08849577 45012,6917.851,95.437,540.144,539.289,0.0
53392.0,STARLINK-4535,PAYLOAD,2023-05-26 23:49:17,15.08856844,6.14e-05,53.2172,12.7381,91.6743,268.432,0.00052245,8.041e-05,0.0,0 STARLINK-4535,1 53392U 22097E   23146.99256927  .00008041  00000-0  52245-3 0  9991,2 53392  53.2172  12.7381 0000614  91.6743 268.4320 15.08856844 44380,6917.829,95.436,540.119,539.269,0.0
53392.0,STARLINK-4535,PAYLOAD,2023-05-27 20:29:18,15.08839758,6.77e-05,53.2173,8.8726,81.6494,278.4575,-4.7384e-05,-1.042e-05,0.0,0 STARLINK-4535,1 53392U 22097E   23147.85369094 -.00001042  00000-0 -47384-4 0  9992,2 53392  53.2173   8.8726 0000677  81.6494 278.4575 15.08839758 44514,6917.881,95.438,540.214,539.278,0.0
53392.0,STARLINK-4535,PAYLOAD,2023-05-27 22:04:42,15.08840985,6.92e-05,53.2175,8.5753,78.8159,281.2911,1.7794e-05,-4e-08,0.0,0 STARLINK-4535,1 53392U 22097E   23147.91993170 -.00000004  00000-0  17794-4 0  9995,2 53392  53.2175   8.5753 0000692  78.8159 281.2911 15.08840985 45179,6917.877,95.437,540.221,539.264,0.0
53392.0,STARLINK-4535,PAYLOAD,2023-05-28 20:20:05,15.08849849,7.14e-05,53.2177,4.4122,75.0055,285.1016,9.7721e-05,1.268e-05,0.0,0 STARLINK-4535,1 53392U 22097E   23148.84728523  .00001268  00000-0  97721-4 0  9996,2 53392  53.2177   4.4122 0000714  75.0055 285.1016 15.08849849 44665,6917.85,95.437,540.209,539.221,0.0
53392.0,STARLINK-4535,PAYLOAD,2023-05-29 13:49:20,15.08837442,7.21e-05,53.2186,1.1428,79.8077,280.2997,5.156e-05,5.33e-06,0.0,0 STARLINK-4535,1 53392U 22097E   23149.57593165  .00000533  00000-0  51560-4 0  9994,2 53392  53.2186   1.1428 0000721  79.8077 280.2997 15.08837442 45427,6917.888,95.438,540.252,539.254,0.0
